QBEE50-LTU-OC           
1 42708U 98067LR  17345.94692850  .00018372  00000-0  20806-3 0  9994
2 42708  51.6369 226.0437 0001905 166.2732 193.8314 15.62465662 32523
